[Satellite]
VERSION=1.1
NAME=NOAA 12 [-]
NICKNAME=NOAA 12 [-]
TLE1=1 21263U 91032A   19317.55742414 -.00000016  00000-0  11143-4 0  9994
TLE2=2 21263  98.5129 328.7749 0012815 226.9882 133.0225 14.25902432482040
STATUS=2
